{"fetched_at":"2026-05-03T09:24:26Z","count":17359,"tles":[{"name":"KUIPER-00433","line1":"1 68869U 26095F   26122.41670139  .00068724  00000+0  18919-2 0  9999","line2":"2 68869  51.8736 103.7269 0007704 126.5226  10.5794 15.36500457  1305","category":"Other"}]}