{
  "norad_id": 68869,
  "name": "KUIPER-00433",
  "history": [
    {
      "epoch": "2026-05-02T10:00:03.000096Z",
      "apogee_km": 461.73273165035243,
      "perigee_km": 451.2019732640874,
      "latitude_deg": 32.47087423161525,
      "longitude_deg": -116.40055239935049,
      "height_km": 453.26749982653587,
      "semi_major_axis_km": 6834.60435245722,
      "eccentricity": 0.0007704,
      "inclination_deg": 51.8736,
      "raan_deg": 103.7269,
      "arg_perigee_deg": 126.5226,
      "mean_anomaly_deg": 10.5794,
      "mean_motion_rev_day": 15.36500457
    }
  ]
}